[{"OBJECT_NAME":"OBJECT V","OBJECT_ID":"2023-085V","EPOCH":"2026-03-09T21:44:00.165408","MEAN_MOTION":15.30745852,"ECCENTRICITY":0.00069081,"INCLINATION":97.4843,"RA_OF_ASC_NODE":179.3833,"ARG_OF_PERICENTER":71.0503,"MEAN_ANOMALY":289.1485,"EPHEMERIS_TYPE":0,"CLASSIFICATION_TYPE":"U","NORAD_CAT_ID":57023,"ELEMENT_SET_NO":999,"REV_AT_EPOCH":15149,"BSTAR":0.00067780507,"MEAN_MOTION_DOT":0.00020109,"MEAN_MOTION_DDOT":0},{"OBJECT_NAME":"STARLINK-34084","OBJECT_ID":"2025-099U","EPOCH":"2026-03-09T07:31:00.876576","MEAN_MOTION":15.27590814,"ECCENTRICITY":5.596e-5,"INCLINATION":42.9963,"RA_OF_ASC_NODE":177.9147,"ARG_OF_PERICENTER":254.2506,"MEAN_ANOMALY":105.8284,"EPHEMERIS_TYPE":0,"CLASSIFICATION_TYPE":"U","NORAD_CAT_ID":63970,"ELEMENT_SET_NO":999,"REV_AT_EPOCH":4728,"BSTAR":0.0015426738,"MEAN_MOTION_DOT":0.00042448,"MEAN_MOTION_DDOT":0}]
